ONEWEB-0697             
1 61603U 24188K   25318.83077696  .00000546  00000+0  15036-2 0  9995
2 61603  87.8857  63.7602 0002201  84.4214 275.7165 13.11416418 56355
ONEWEB-0698             
1 61604U 24188L   25318.57983591  .00000304  00000+0  82191-3 0  9996
2 61604  87.8860  63.8248 0002760  98.8260 261.3180 13.11418815 56347
ONEWEB-0699             
1 61605U 24188M   25318.80365477  .00000348  00000+0  95973-3 0  9990
2 61605  87.8807  78.9937 0002106  87.2259 272.9109 13.10371687 55235
ONEWEB-0700             
1 61606U 24188N   25318.80532087  .00000230  00000+0  62291-3 0  9991
2 61606  87.8809  78.8767 0001657  75.5134 284.6177 13.10370381 55224
ONEWEB-0701             
1 61607U 24188P   25318.82189877 -.00000454  00000+0 -13362-2 0  9993
2 61607  87.8802  78.9919 0002193  84.4041 275.7336 13.10373901 55230
ONEWEB-0702             
1 61608U 24188Q   25318.85449845 -.00000324  00000+0 -94880-3 0  9992
2 61608  87.8819  63.6672 0002130  77.9221 282.2146 13.11416847 56392
ONEWEB-0704             
1 61609U 24188R   25318.58122218 -.00000062  00000+0 -21325-3 0  9998
2 61609  87.8816  79.0011 0002007  73.2112 286.9236 13.10369684 55181
ONEWEB-0705             
1 61610U 24188S   25318.81528472 -.00000416  00000+0 -12294-2 0  9995
2 61610  87.8806  78.9801 0001207  54.9515 305.1726 13.10364667 47388
